[
    {
        "Altitude(m)": 706872.3045451739,
        "Argument of Periapsis(deg)": 0.006834072711976239,
        "Eccentricity": 0.0,
        "Inclination(deg)": 45.0,
        "Latitude(deg)": 43.20227186755828,
        "Longitude(deg)": 100.46668774030998,
        "Mean Anomaly(deg)": 105.10172998848849,
        "RAAN(deg)": 89.99354883512507,
        "Satellite Name": "Constellation 1 402",
        "Satellite Number": 402,
        "Semi-Major Axis(m)": 7083131.272910544,
        "Time(s)": 114
    },
    {
        "Altitude(m)": 706868.8816987923,
        "Argument of Periapsis(deg)": 0.006894020718221645,
        "Eccentricity": 0.0,
        "Inclination(deg)": 45.0,
        "Latitude(deg)": 43.18688175305834,
        "Longitude(deg)": 100.54297057695157,
        "Mean Anomaly(deg)": 105.1624311287384,
        "RAAN(deg)": 89.9934922459595,
        "Satellite Name": "Constellation 1 402",
        "Satellite Number": 402,
        "Semi-Major Axis(m)": 7083131.272910544,
        "Time(s)": 115
    },
    {
        "Altitude(m)": 706865.4468132677,
        "Argument of Periapsis(deg)": 0.006953968724467052,
        "Eccentricity": 0.0,
        "Inclination(deg)": 45.0,
        "Latitude(deg)": 43.17143515955622,
        "Longitude(deg)": 100.61921298557267,
        "Mean Anomaly(deg)": 105.2231322689883,
        "RAAN(deg)": 89.99343565679393,
        "Satellite Name": "Constellation 1 402",
        "Satellite Number": 402,
        "Semi-Major Axis(m)": 7083131.272910544,
        "Time(s)": 116
    },
    {
        "Altitude(m)": 706861.9999089742,
        "Argument of Periapsis(deg)": 0.007013916730712457,
        "Eccentricity": 0.0,
        "Inclination(deg)": 45.0,
        "Latitude(deg)": 43.155932145401316,
        "Longitude(deg)": 100.6954148605789,
        "Mean Anomaly(deg)": 105.28383340923818,
        "RAAN(deg)": 89.99337906762837,
        "Satellite Name": "Constellation 1 402",
        "Satellite Number": 402,
        "Semi-Major Axis(m)": 7083131.272910544,
        "Time(s)": 117
    },
    {
        "Altitude(m)": 706858.5410063511,
        "Argument of Periapsis(deg)": 0.007073864736957864,
        "Eccentricity": 0.0,
        "Inclination(deg)": 45.0,
        "Latitude(deg)": 43.140372769080635,
        "Longitude(deg)": 100.77157609693874,
        "Mean Anomaly(deg)": 105.34453454948806,
        "RAAN(deg)": 89.9933224784628,
        "Satellite Name": "Constellation 1 402",
        "Satellite Number": 402,
        "Semi-Major Axis(m)": 7083131.272910544,
        "Time(s)": 118
    },
    {
        "Altitude(m)": 706855.0701259114,
        "Argument of Periapsis(deg)": 0.0071338127432032696,
        "Eccentricity": 0.0,
        "Inclination(deg)": 45.0,
        "Latitude(deg)": 43.12475708921817,
        "Longitude(deg)": 100.84769642208624,
        "Mean Anomaly(deg)": 105.40523568973796,
        "RAAN(deg)": 89.99326588929723,
        "Satellite Name": "Constellation 1 402",
        "Satellite Number": 402,
        "Semi-Major Axis(m)": 7083131.272910544,
        "Time(s)": 119
    },
    {
        "Altitude(m)": 706851.5872882453,
        "Argument of Periapsis(deg)": 0.007193760749448674,
        "Eccentricity": 0.0,
        "Inclination(deg)": 45.0,
        "Latitude(deg)": 43.109085164573806,
        "Longitude(deg)": 100.92377606831064,
        "Mean Anomaly(deg)": 105.4659368299879,
        "RAAN(deg)": 89.99320930013167,
        "Satellite Name": "Constellation 1 402",
        "Satellite Number": 402,
        "Semi-Major Axis(m)": 7083131.272910544,
        "Time(s)": 120
    },
    {
        "Altitude(m)": 706848.0925140093,
        "Argument of Periapsis(deg)": 0.007253708755694079,
        "Eccentricity": 0.0,
        "Inclination(deg)": 45.0,
        "Latitude(deg)": 43.09335705404255,
        "Longitude(deg)": 100.99981476417275,
        "Mean Anomaly(deg)": 105.5266379702378,
        "RAAN(deg)": 89.99315271096609,
        "Satellite Name": "Constellation 1 402",
        "Satellite Number": 402,
        "Semi-Major Axis(m)": 7083131.272910544,
        "Time(s)": 121
    },
    {
        "Altitude(m)": 706844.5858239395,
        "Argument of Periapsis(deg)": 0.0073136567619394854,
        "Eccentricity": 0.0,
        "Inclination(deg)": 45.0,
        "Latitude(deg)": 43.07757281665348,
        "Longitude(deg)": 101.07581240689449,
        "Mean Anomaly(deg)": 105.58733911048769,
        "RAAN(deg)": 89.99309612180052,
        "Satellite Name": "Constellation 1 402",
        "Satellite Number": 402,
        "Semi-Major Axis(m)": 7083131.272910544,
        "Time(s)": 122
    },
    {
        "Altitude(m)": 706841.067238844,
        "Argument of Periapsis(deg)": 0.0073736047681848904,
        "Eccentricity": 0.0,
        "Inclination(deg)": 45.0,
        "Latitude(deg)": 43.06173251156892,
        "Longitude(deg)": 101.15176889426165,
        "Mean Anomaly(deg)": 105.64804025073755,
        "RAAN(deg)": 89.99303953263495,
        "Satellite Name": "Constellation 1 402",
        "Satellite Number": 402,
        "Semi-Major Axis(m)": 7083131.272910544,
        "Time(s)": 123
    },
    {
        "Altitude(m)": 706837.5367796007,
        "Argument of Periapsis(deg)": 0.007433552774430298,
        "Eccentricity": 0.0,
        "Inclination(deg)": 45.0,
        "Latitude(deg)": 43.04583619808342,
        "Longitude(deg)": 101.22768412462457,
        "Mean Anomaly(deg)": 105.70874139098748,
        "RAAN(deg)": 89.99298294346939,
        "Satellite Name": "Constellation 1 402",
        "Satellite Number": 402,
        "Semi-Major Axis(m)": 7083131.272910544,
        "Time(s)": 124
    },
    {
        "Altitude(m)": 706833.9944671592,
        "Argument of Periapsis(deg)": 0.007493500780675703,
        "Eccentricity": 0.0,
        "Inclination(deg)": 45.0,
        "Latitude(deg)": 43.02988393562301,
        "Longitude(deg)": 101.30355799689774,
        "Mean Anomaly(deg)": 105.76944253123739,
        "RAAN(deg)": 89.99292635430382,
        "Satellite Name": "Constellation 1 402",
        "Satellite Number": 402,
        "Semi-Major Axis(m)": 7083131.272910544,
        "Time(s)": 125
    },
    {
        "Altitude(m)": 706830.4403225472,
        "Argument of Periapsis(deg)": 0.007553448786921108,
        "Eccentricity": 0.0,
        "Inclination(deg)": 45.0,
        "Latitude(deg)": 43.0138757837441,
        "Longitude(deg)": 101.37939024246296,
        "Mean Anomaly(deg)": 105.83014367148728,
        "RAAN(deg)": 89.99286976513824,
        "Satellite Name": "Constellation 1 402",
        "Satellite Number": 402,
        "Semi-Major Axis(m)": 7083131.272910544,
        "Time(s)": 126
    },
    {
        "Altitude(m)": 706826.8743668608,
        "Argument of Periapsis(deg)": 0.007613396793166514,
        "Eccentricity": 0.0,
        "Inclination(deg)": 45.0,
        "Latitude(deg)": 42.99781180213265,
        "Longitude(deg)": 101.45518109755884,
        "Mean Anomaly(deg)": 105.89084481173717,
        "RAAN(deg)": 89.99281317597267,
        "Satellite Name": "Constellation 1 402",
        "Satellite Number": 402,
        "Semi-Major Axis(m)": 7083131.272910544,
        "Time(s)": 127
    },
    {
        "Altitude(m)": 706823.2966212671,
        "Argument of Periapsis(deg)": 0.007673344799411918,
        "Eccentricity": 0.0,
        "Inclination(deg)": 45.0,
        "Latitude(deg)": 42.981692050603286,
        "Longitude(deg)": 101.530930294697,
        "Mean Anomaly(deg)": 105.95154595198706,
        "RAAN(deg)": 89.9927565868071,
        "Satellite Name": "Constellation 1 402",
        "Satellite Number": 402,
        "Semi-Major Axis(m)": 7083131.272910544,
        "Time(s)": 128
    },
    {
        "Altitude(m)": 706819.707107012,
        "Argument of Periapsis(deg)": 0.007733292805657325,
        "Eccentricity": 0.0,
        "Inclination(deg)": 45.0,
        "Latitude(deg)": 42.96551658909834,
        "Longitude(deg)": 101.60663773505136,
        "Mean Anomaly(deg)": 106.01224709223699,
        "RAAN(deg)": 89.99269999764152,
        "Satellite Name": "Constellation 1 402",
        "Satellite Number": 402,
        "Semi-Major Axis(m)": 7083131.272910544,
        "Time(s)": 129
    },
    {
        "Altitude(m)": 706816.1058454046,
        "Argument of Periapsis(deg)": 0.00779324081190273,
        "Eccentricity": 0.0,
        "Inclination(deg)": 45.0,
        "Latitude(deg)": 42.94928547768693,
        "Longitude(deg)": 101.6823033203612,
        "Mean Anomaly(deg)": 106.07294823248688,
        "RAAN(deg)": 89.99264340847596,
        "Satellite Name": "Constellation 1 402",
        "Satellite Number": 402,
        "Semi-Major Axis(m)": 7083131.272910544,
        "Time(s)": 130
    },
    {
        "Altitude(m)": 706812.4928578327,
        "Argument of Periapsis(deg)": 0.007853188818148135,
        "Eccentricity": 0.0,
        "Inclination(deg)": 45.0,
        "Latitude(deg)": 42.9329987765641,
        "Longitude(deg)": 101.75792695293084,
        "Mean Anomaly(deg)": 106.1336493727368,
        "RAAN(deg)": 89.9925868193104,
        "Satellite Name": "Constellation 1 402",
        "Satellite Number": 402,
        "Semi-Major Axis(m)": 7083131.272910544,
        "Time(s)": 131
    },
    {
        "Altitude(m)": 706808.8681657539,
        "Argument of Periapsis(deg)": 0.007913136824393542,
        "Eccentricity": 0.0,
        "Inclination(deg)": 45.0,
        "Latitude(deg)": 42.91665654604979,
        "Longitude(deg)": 101.83350853563023,
        "Mean Anomaly(deg)": 106.19435051298665,
        "RAAN(deg)": 89.99253023014482,
        "Satellite Name": "Constellation 1 402",
        "Satellite Number": 402,
        "Semi-Major Axis(m)": 7083131.272910544,
        "Time(s)": 132
    }
]